BEIDOU-2 IGSO-5         
1 37948U 11073A   26183.72937883 -.00000128  00000+0  00000+0 0  9990
2 37948  47.6496 271.3544 0114527 222.0502 141.5350  1.00270596 53296
LUCH-5A                 
1 37951U 11074B   26199.53772206 -.00000060  00000+0  00000+0 0  9992
2 37951   8.8316  73.3451 0002741  60.5783 163.0027  1.00273792 53366
BEIDOU-2 G5             
1 38091U 12008A   26199.85887684  .00000050  00000+0  00000+0 0  9996
2 38091   3.6511  69.4992 0007284 269.1260 325.8751  1.00271349 52684
BEIDOU-2 M3             
1 38250U 12018A   26198.79533443 -.00000087  00000+0  00000+0 0  9998
2 38250  55.7296 303.8435 0021044 272.1726  87.6188  1.86229645 96510
BEIDOU-2 M4             
1 38251U 12018B   26199.26464312 -.00000089  00000+0  00000+0 0  9992
2 38251  55.6290 303.0389 0012176 272.1376  87.7565  1.86229286 96523
SES-5                   
1 38652U 12036A   26199.33810419  .00000026  00000+0  00000+0 0  9998
2 38652   0.0443 322.9360 0001959 155.1766 304.7160  1.00271541 44760
BEIDOU-2 M6             
1 38775U 12050B   26198.97421240 -.00000062  00000+0  00000+0 0  9990
2 38775  56.5713  61.8766 0012811   1.9822 358.0915  1.86230950 93881
GSAT-10                 
1 38779U 12051B   26199.87470700 -.00000171  00000+0  00000+0 0  9991
2 38779   0.0811 264.2462 0007520 191.0157 239.3053  1.00272775 50416
NAVSTAR 67 (USA 239)    
1 38833U 12053A   26199.72585272  .00000025  00000+0  00000+0 0  9996
2 38833  53.5900 142.3072 0182235  66.2866 295.5888  2.00568003100070
GSAT0103 (GALILEO-FM3)  
1 38857U 12055A   26197.21850469 -.00000026  00000+0  00000+0 0  9991
2 38857  55.8227 100.7486 0003594 314.9576  45.0469  1.70473424 85502
BEIDOU-2 G6             
1 38953U 12059A   26199.87662771 -.00000184  00000+0  00000+0 0  9998
2 38953   4.5000  73.1804 0008827 327.5469 295.5388  1.00273161 50223
LUCH-5B                 
1 38977U 12061A   26199.33403083 -.00000149  00000+0  00000+0 0  9998
2 38977  10.5496  49.5701 0003835 147.0481 203.4789  1.00270293 49911
COSMOS 2485 [GLONASS-M] 
1 39155U 13019A   26198.41189181 -.00000024  00000+0  00000+0 0  9991
2 39155  65.4363  72.5906 0022584 230.9016 128.9717  2.13103096102927
NAVSTAR 68 (USA 242)    
1 39166U 13023A   26199.09508905 -.00000033  00000+0  00000+0 0  9992
2 39166  54.4806 267.7131 0141385  51.1121 310.2133  2.00563355 96506
IRNSS-1A                
1 39199U 13034A   26191.72043649  .00000047  00000+0  00000+0 0  9995
2 39199  35.7704  63.5328 0017567 183.4462 356.2994  1.00281941 47601
NAVSTAR 69 (USA 248)    
1 39533U 14008A   26199.09693287  .00000029  00000+0  00000+0 0  9996
2 39533  53.6580 148.0590 0084062 231.5632 127.6506  2.00561763 90300
ASTRA 5B                
1 39617U 14011B   26199.83586453  .00000130  00000+0  00000+0 0  9994
2 39617   0.0689 306.2731 0002026 179.1336 135.5839  1.00270161 44980
COSMOS 2492 [GLONASS-M] 
1 39620U 14012A   26197.43221882 -.00000064  00000+0  00000+0 0  9992
2 39620  65.2787 312.9423 0010294 317.3344  42.6017  2.13103163 95860
IRNSS-1B                
1 39635U 14017A   26199.70438066  .00000121  00000+0  00000+0 0  9992
2 39635  28.8702 239.8599 0022199 192.0035 173.4078  1.00276854 45117
LUCH-5V                 
1 39727U 14023A   26199.86261924 -.00000277  00000+0  00000+0 0  9998
2 39727   5.2094  69.4150 0002105  83.3325 189.1903  1.00272383 44675
NAVSTAR 70 (USA 251)    
1 39741U 14026A   26199.87168194 -.00000103  00000+0  00000+0 0  9991
2 39741  56.4811 330.2843 0038161 325.6855  34.0716  2.00558684 89171
COSMOS 2500 [GLONASS-M] 
1 40001U 14032A   26199.47862507 -.00000073  00000+0  00000+0 0  9990
2 40001  65.2124 312.6171 0008388 190.9588 169.0438  2.13105734 94128
NAVSTAR 71 (USA 256)    
1 40105U 14045A   26198.46758160 -.00000030  00000+0  00000+0 0  9999
2 40105  55.3728  87.2585 0034528 118.4118 241.9927  2.00560402 86684
GSAT0201 (GALILEO 5)    
1 40128U 14050A   26199.67806367 -.00000061  00000+0  00000+0 0  9991
2 40128  48.8408 272.1432 1678965 180.6285 179.1839  1.85519739 78902
GSAT0202 (GALILEO 6)    
1 40129U 14050B   26198.85553230 -.00000054  00000+0  00000+0 0  9991
2 40129  48.8588 271.2629 1680174 181.3093 178.2437  1.85520332 81055
IRNSS-1C                
1 40269U 14061A   26199.71006955 -.00000172  00000+0  00000+0 0  9992
2 40269   6.5950  88.3313 0021993   5.8558 180.9989  1.00271766 43000
NAVSTAR 72 (USA 258)    
1 40294U 14068A   26199.33313935 -.00000085  00000+0  00000+0 0  9997
2 40294  57.0091  29.7559 0067425  72.4144 288.3587  2.00553485 85833
COSMOS 2501 [GLONASS-K] 
1 40315U 14075A   26199.27175601  .00000062  00000+0  00000+0 0  9992
2 40315  63.6183 189.2960 0022680 212.6285 147.2256  2.13101246 90513
NAVSTAR 73 (USA 260)    
1 40534U 15013A   26198.97603834  .00000044  00000+0  00000+0 0  9998
2 40534  53.1659 202.9042 0110469  40.4150 320.4084  2.00549510 82446
GSAT0203 (GALILEO 7)    
1 40544U 15017A   26198.12850752 -.00000104  00000+0  00000+0 0  9991
2 40544  56.7761 340.7804 0002702 254.9804 104.9775  1.70476213 69717
GSAT0204 (GALILEO 8)    
1 40545U 15017B   26198.97096918 -.00000105  00000+0  00000+0 0  9992
2 40545  56.7834 340.7762 0002880 234.5302 125.4325  1.70475755 32771
